[
  {
    "norad_id": "49069",
    "name": "LEDSAT",
    "tle1": "1 49069U 21073D   25123.76845339  .00084369  00000+0  12027-2 0  9992\r",
    "tle2": "2 49069  97.3902 203.9020 0011755 206.0134 154.0531 15.55947727205706",
    "transmitters": [
      {
        "description": "Mode U - Beacon GMSK9k6 AX.100",
        "mode": "MSK AX.100 Mode 5",
        "status": "active",
        "uplink": null,
        "downlink": 435190000
      },
      {
        "description": "Mode U/U - Digipeater GMSK1k2 AX.100",
        "mode": "MSK AX.100 Mode 5",
        "status": "active",
        "uplink": 435310000,
        "downlink": 435190000
      }
    ],
    "image": "satellites/ledsat.png",
    "country": "IT"
  },
  {
    "norad_id": "60209",
    "name": "MESAT-1",
    "tle1": "1 60209U 24125G   25123.55788744  .00026428  00000+0  78080-3 0  9999\r",
    "tle2": "2 60209  97.2840 335.6174 0017620 269.4854  90.4370 15.34770270 46270",
    "transmitters": [
      {
        "description": "GlobalStar EyeStar 2M32G1D",
        "mode": "BPSK",
        "status": "active",
        "uplink": null,
        "downlink": 1616250000
      },
      {
        "description": "UHF TLM 1k2 BPSK",
        "mode": "BPSK",
        "status": "active",
        "uplink": null,
        "downlink": 435800000
      },
      {
        "description": "Mode V/U - BPSK1k2 - Transponder",
        "mode": "BPSK",
        "status": "active",
        "uplink": "145910000-145940000",
        "downlink": "435810000-435840000"
      }
    ],
    "image": "satellites/IMG_0571-317x422.jpg",
    "country": "US"
  },
  {
    "norad_id": "43780",
    "name": "MOVE-2",
    "tle1": "1 43780U 18099Y   25123.72941923  .00188514  00000+0  20664-2 0  9995\r",
    "tle2": "2 43780  97.4673 196.9385 0005117 228.5939 131.4879 15.62620422352028",
    "transmitters": [
      {
        "description": "CW Beacon",
        "mode": "CW",
        "status": "active",
        "uplink": null,
        "downlink": 145950000
      },
      {
        "description": "BPSK Telemetry",
        "mode": "BPSK",
        "status": "active",
        "uplink": null,
        "downlink": 145950000
      },
      {
        "description": "BPSK TLM IQ recording usage",
        "mode": "BPSK",
        "status": "active",
        "uplink": null,
        "downlink": 145950000
      }
    ],
    "image": "",
    "country": "DE"
  },
  {
    "norad_id": "26931",
    "name": "NO-44",
    "tle1": "1 26931U 01043C   25123.55192725  .00000363  00000+0  16693-3 0  9997\r",
    "tle2": "2 26931  67.0512 223.5737 0005713 272.5817  87.4631 14.31715708231801",
    "transmitters": [
      {
        "description": "Mode V/V APRS AFSK",
        "mode": "AFSK",
        "status": "active",
        "uplink": 145825000,
        "downlink": 145825000
      },
      {
        "description": "PE0SAT - 1k2 AFSK APRS",
        "mode": "AFSK",
        "status": "active",
        "uplink": null,
        "downlink": 145826800
      },
      {
        "description": "Mode V - R2 Backup APRS 1K2",
        "mode": "AFSK",
        "status": "active",
        "uplink": null,
        "downlink": 144390000
      }
    ],
    "image": "https://db-satnogs.freetls.fastly.net/media/satellites/no44.gif",
    "country": "US"
  },
  {
    "norad_id": "63211",
    "name": "NUSHSat-1",
    "tle1": "1 63211U 25052B   25123.47122917  .00022522  00000+0  10490-2 0  9991\r",
    "tle2": "2 63211  97.4444  18.0757 0006586  95.8121 264.3865 15.19898124  7612",
    "transmitters": [
      {
        "description": "Mode U - Transmitter",
        "mode": "FSK AX.100 Mode 5",
        "status": "active",
        "uplink": null,
        "downlink": 436200000
      }
    ],
    "image": "",
    "country": "SG"
  },
  {
    "norad_id": "60243",
    "name": "ROBUSTA-3A",
    "tle1": "1 60243U 24128J   25123.61906935  .00011132  00000+0  79348-3 0  9995\r",
    "tle2": "2 60243  61.9880 207.9096 0047151  42.4469 318.0254 15.04120426 44667",
    "transmitters": [
      {
        "description": "Mode U - GMSK9k6 - AX.25",
        "mode": "GMSK",
        "status": "active",
        "uplink": null,
        "downlink": 436750000
      },
      {
        "description": "Mode S - Transmitter",
        "mode": "FM",
        "status": "active",
        "uplink": null,
        "downlink": 2202000000
      }
    ],
    "image": "satellites/ROBUSTA-3A.png",
    "country": "FR"
  },
  {
    "norad_id": "27607",
    "name": "SaudiSat-1C",
    "tle1": "1 27607U 02058C   25122.95561422  .00002217  00000+0  29396-3 0  9996\r",
    "tle2": "2 27607  64.5543 316.6637 0051844 342.8462  17.0889 14.81519193203655",
    "transmitters": [
      {
        "description": "Mode V/U FM Voice CTCSS 67.0 Hz",
        "mode": "FM",
        "status": "active",
        "uplink": 145850000,
        "downlink": 436795000
      },
      {
        "description": "Mode V TLM",
        "mode": "FM",
        "status": "active",
        "uplink": null,
        "downlink": 149025000
      }
    ],
    "image": "https://db-satnogs.freetls.fastly.net/media/satellites/saudisat-so-50.jpg",
    "country": "SA"
  },
  {
    "norad_id": "59112",
    "name": "SONATE-2",
    "tle1": "1 59112U 24043Q   25123.60131613  .00026013  00000+0  77825-3 0  9998\r",
    "tle2": "2 59112  97.5083 254.0849 0010717 241.6510 118.3652 15.34477911 64669",
    "transmitters": [
      {
        "description": "Mode V - CW",
        "mode": "CW",
        "status": "active",
        "uplink": null,
        "downlink": 145840000
      },
      {
        "description": "Mode U - GMSK9k6 - AX.25 G3RUH - Telemetry",
        "mode": "GMSK",
        "status": "active",
        "uplink": null,
        "downlink": 437025000
      },
      {
        "description": "Mode V - SSTV - Martin M1 SSTV",
        "mode": "SSTV",
        "status": "active",
        "uplink": null,
        "downlink": 145880000
      },
      {
        "description": "Mode V/V - APRS digipeater",
        "mode": "AFSK",
        "status": "active",
        "uplink": 145825000,
        "downlink": 145825000
      },
      {
        "description": "Mode S - QPSK 2.048 Msps - CCSDS 131.0-B Convolutional code k=7, r=0.5, randomizer on",
        "mode": "QPSK",
        "status": "active",
        "uplink": null,
        "downlink": 2267700000
      }
    ],
    "image": "satellites/sonate-2.png",
    "country": "DE"
  },
  {
    "norad_id": "43804",
    "name": "Suomi-100",
    "tle1": "1 43804U 18099AY  25123.42152667  .00016179  00000+0  80503-3 0  9994\r",
    "tle2": "2 43804  97.4754 182.2467 0010818 275.8217  84.1783 15.17640410351062",
    "transmitters": [
      {
        "description": "GMSK9k6 TLM",
        "mode": "MSK AX.100 Mode 5",
        "status": "active",
        "uplink": null,
        "downlink": 437775000
      }
    ],
    "image": "satellites/suomi1001.png",
    "country": "FI"
  },
  {
    "norad_id": "43188",
    "name": "S-NetA",
    "tle1": "1 43188U 18014J   25123.29770319  .00009090  00000+0  54067-3 0  9991\r",
    "tle2": "2 43188  97.5662  26.7039 0009616   0.9806 359.1441 15.11440860396749",
    "transmitters": [
      {
        "description": "S-Band Downlink",
        "mode": "FM",
        "status": "active",
        "uplink": null,
        "downlink": 2263000000
      },
      {
        "description": "AFSK 1k2 TLM",
        "mode": "AFSK TUBiX10",
        "status": "active",
        "uplink": null,
        "downlink": 435950000
      }
    ],
    "image": "",
    "country": "DE"
  },
  {
    "norad_id": "49396",
    "name": "TeikyoSat-4",
    "tle1": "1 49396U 21102B   25123.58063368  .00003888  00000+0  26002-3 0  9998\r",
    "tle2": "2 49396  97.4139 163.3419 0010918 258.4981 101.5022 15.07477217190977",
    "transmitters": [
      {
        "description": "Mode U - CW Beacon",
        "mode": "CW",
        "status": "active",
        "uplink": null,
        "downlink": 437450000
      },
      {
        "description": "Mode U - AFSK1k2",
        "mode": "AFSK",
        "status": "active",
        "uplink": null,
        "downlink": 437450000
      },
      {
        "description": "Mode U - GMSK9k6",
        "mode": "GMSK",
        "status": "active",
        "uplink": null,
        "downlink": 437450000
      },
      {
        "description": "Mode U - SSTV",
        "mode": "SSTV",
        "status": "active",
        "uplink": null,
        "downlink": 437450000
      },
      {
        "description": "Mode S - FSK115k2",
        "mode": "FSK",
        "status": "active",
        "uplink": null,
        "downlink": 5831000000
      }
    ],
    "image": "satellites/TS4_patch.jpg",
    "country": "JP"
  },
  {
    "norad_id": "63217",
    "name": "TEVEL2-1",
    "tle1": "1 63217U 25052H   25123.41958419  .00020572  00000+0  97301-3 0  9995\r",
    "tle2": "2 63217  97.4338  17.9268 0005712 117.0186 243.1632 15.19390599  7602",
    "transmitters": [
      {
        "description": "Mode U - BPSK9k6 G3RUH - Beacon",
        "mode": "BPSK",
        "status": "active",
        "uplink": null,
        "downlink": 436400000
      },
      {
        "description": "Mode V/U - FM Transponder",
        "mode": "FM",
        "status": "active",
        "uplink": 145970000,
        "downlink": 436400000
      }
    ],
    "image": "satellites/transit-o__1.jpg",
    "country": "US"
  },
  {
    "norad_id": "63218",
    "name": "TEVEL2-2",
    "tle1": "1 63218U 25052J   25123.88083575  .00015205  00000+0  72029-3 0  9996\r",
    "tle2": "2 63218  97.4336  18.3805 0005689 116.8501 243.3315 15.19400248  7674",
    "transmitters": [],
    "image": "satellites/transit-o__1.jpg",
    "country": "US"
  },
  {
    "norad_id": "63219",
    "name": "TEVEL2-3",
    "tle1": "1 63219U 25052K   25123.88085910  .00014982  00000+0  70989-3 0  9996\r",
    "tle2": "2 63219  97.4336  18.3805 0005678 116.8132 243.3684 15.19397177  7678",
    "transmitters": [],
    "image": "satellites/transit-o__1.jpg",
    "country": "US"
  }
]